GLOBALSTAR M068 [-]     
1 32266U 07048D   23276.61984221 -.00000084  00000+0  11247-3 0  9991
2 32266  51.9904  39.9530 0000969 157.8563 215.6101 12.62767082738901
GLOBALSTAR M079 [+]     
1 37188U 10054A   23276.41476758 -.00000083  00000+0  11675-3 0  9993
2 37188  52.0024 235.6060 0000619  51.6543 100.2446 12.62268257597801
GLOBALSTAR M074 [+]     
1 37189U 10054B   23276.60367053 -.00000092  00000+0  68216-4 0  9996
2 37189  52.0001 234.4496 0000529  70.4339 100.5501 12.62270165598503
GLOBALSTAR M076 [+]     
1 37190U 10054C   23276.63016311 -.00000088  00000+0  90147-4 0  9992
2 37190  52.0016 234.4830 0001078  69.1023 102.5549 12.62261599598154
GLOBALSTAR M077 [+]     
1 37191U 10054D   23276.13484767 -.00000063  00000+0  22615-3 0  9999
2 37191  52.0064 192.6698 0000676  75.3648  63.0257 12.62264265598464
GLOBALSTAR M075 [+]     
1 37192U 10054E   23276.29185612 -.00000096  00000+0  42829-4 0  9990
2 37192  51.9936 278.1190 0000481  53.7132 319.1900 12.62261859597342
GLOBALSTAR M073 [+]     
1 37193U 10054F   23276.48504198 -.00000067  00000+0  20540-3 0  9999
2 37193  52.0052 190.8730 0000705  66.9130 104.6086 12.62267916599194
GLOBALSTAR M083 [+]     
1 37739U 11033A   23276.33965976 -.00000082  00000+0  12273-3 0  9993
2 37739  51.9842 140.8967 0000573  68.6900 103.1784 12.62269689568193
GLOBALSTAR M088 [+]     
1 37740U 11033B   23276.53041602 -.00000110  00000+0 -33812-4 0  9994
2 37740  51.9748  46.3291 0000555  78.8125 359.6597 12.62265879563767
GLOBALSTAR M091 [+]     
1 37741U 11033C   23276.46529292 -.00000094  00000+0  54329-4 0  9999
2 37741  52.0025   8.9713 0000419  73.3063   8.3977 12.62266583564541
GLOBALSTAR M085 [+]     
1 37742U 11033D   23276.43689799 -.00000084  00000+0  11249-3 0  9998
2 37742  51.9879 320.6496 0000274  62.2785 311.1664 12.62263303565058
GLOBALSTAR M081 [+]     
1 37743U 11033E   23276.46325473 -.00000075  00000+0  16071-3 0  9996
2 37743  51.9971 322.9722 0000480  54.7183 318.3841 12.62264911565205
GLOBALSTAR M089 [+]     
1 37744U 11033F   23276.26607284 -.00000084  00000+0  11246-3 0  9997
2 37744  51.9918 277.9173 0000651  85.2819 290.9584 12.62267687566024
GLOBALSTAR M084 [+]     
1 38040U 11080A   23276.84793120 -.00000084  00000+0  11212-3 0  9991
2 38040  51.9993 143.1035 0001013  87.8135 353.0570 12.62266549544354
GLOBALSTAR M080 [+]     
1 38041U 11080B   23276.36615699 -.00000073  00000+0  17393-3 0  9997
2 38041  52.0045 145.9576 0001211  80.9060  89.9808 12.62265062544130
GLOBALSTAR M082 [+]     
1 38042U 11080C   23276.58442993 -.00000107  00000+0 -19092-4 0  9995
2 38042  52.0060 100.6709 0000221  88.7848 295.0833 12.62271452544873
GLOBALSTAR M092 [+]     
1 38043U 11080D   23276.51115028 -.00000067  00000+0  20481-3 0  9992
2 38043  52.0076 191.2378 0000827  93.7858  77.2601 12.62272496543318
GLOBALSTAR M090 [+]     
1 38044U 11080E   23276.54812427 -.00000112  00000+0 -45406-4 0  9990
2 38044  51.9870  95.3918 0000592  74.8844  24.3158 12.62278077544982
GLOBALSTAR M086 [+]     
1 38045U 11080F   23276.47833867 -.00000106  00000+0 -10423-4 0  9998
2 38045  51.9881  96.1067 0001480  49.5593 332.5404 12.62263026544926
GLOBALSTAR M097 [+]     
1 39072U 13005A   23276.57937912 -.00000092  00000+0  66440-4 0  9998
2 39072  52.0074   9.7156 0000410  69.5969 290.4942 12.62270724492264
GLOBALSTAR M093 [+]     
1 39073U 13005B   23276.55281745 -.00000087  00000+0  94591-4 0  9995
2 39073  51.9837   4.0962 0000450  41.0176 319.0724 12.62266989492132
GLOBALSTAR M094 [+]     
1 39074U 13005C   23276.47369118 -.00000096  00000+0  44463-4 0  9991
2 39074  51.9946 278.0986 0000439  50.8106 309.2800 12.62268139493733
GLOBALSTAR M096 [+]     
1 39075U 13005D   23276.48677231 -.00000082  00000+0  12034-3 0  9994
2 39075  52.0088 326.0866 0000354  52.7906 307.2993 12.62264403492650
GLOBALSTAR M078 [+]     
1 39076U 13005E   23276.61850342 -.00000106  00000+0 -12372-4 0  9990
2 39076  51.9882  51.0353 0000590 198.4355 161.6490 12.62261557491295
GLOBALSTAR M095 [+]     
1 39077U 13005F   23276.64530652 -.00000112  00000+0 -43962-4 0  9999
2 39077  51.9811  48.4624 0000051 100.7622 259.3250 12.62269040491513
GLOBALSTAR M087 [+]     
1 52888U 22064A   23276.61202317 -.00000091  00000+0  71206-4 0  9997
2 52888  51.9775  26.5175 0010073  72.9653 287.2350 13.37553681 63059
